[{"OBJECT_NAME":"QIANFAN-53","OBJECT_ID":"2024-232T","EPOCH":"2026-03-09T22:56:18.814848","MEAN_MOTION":13.51004244,"ECCENTRICITY":0.00126691,"INCLINATION":89.0069,"RA_OF_ASC_NODE":32.4163,"ARG_OF_PERICENTER":308.0126,"MEAN_ANOMALY":51.9881,"EPHEMERIS_TYPE":0,"CLASSIFICATION_TYPE":"U","NORAD_CAT_ID":62254,"ELEMENT_SET_NO":999,"REV_AT_EPOCH":7968,"BSTAR":0.00014932043,"MEAN_MOTION_DOT":1.08e-6,"MEAN_MOTION_DDOT":0},{"OBJECT_NAME":"THOR ABLESTAR R\/B","OBJECT_ID":"1962-060B","EPOCH":"2026-03-09T15:46:48.356832","MEAN_MOTION":13.39168914,"ECCENTRICITY":0.00657707,"INCLINATION":50.1297,"RA_OF_ASC_NODE":162.7685,"ARG_OF_PERICENTER":240.9327,"MEAN_ANOMALY":271.3374,"EPHEMERIS_TYPE":0,"CLASSIFICATION_TYPE":"U","NORAD_CAT_ID":447,"ELEMENT_SET_NO":999,"REV_AT_EPOCH":9873,"BSTAR":7.8248874e-5,"MEAN_MOTION_DOT":-8.4e-7,"MEAN_MOTION_DDOT":0}]
